start=new Date('2022-08-01T00:00:00.000Z').valueOf();
sats=[{"MEAN_ANOMALY":"292.1897","OBJECT_NAME":"STARLINK-1309","LAUNCH_DATE":"2020-03-18","BSTAR":"0.00013404000000","EPHEMERIS_TYPE":"0","RA_OF_ASC_NODE":"289.8158","MEAN_MOTION_DOT":"0.00001716","MEAN_MOTION_DDOT":"0.0000000000000","MEAN_MOTION":"15.06398446","PERIOD":"95.592","TIME_SYSTEM":"UTC","NORAD_CAT_ID":"45414","SITE":"AFETR","APOAPSIS":"548.147","REV_AT_EPOCH":"13131","COUNTRY_CODE":"US","RCS_SIZE":"LARGE","FILE":"3526169","TLE_LINE1":"1 45414U 20019BG  22212.47648792  .00001716  00000-0  13404-3 0  9996","ELEMENT_SET_NO":"999","PERIAPSIS":"546.290","OBJECT_ID":"2020-019BG","CLASSIFICATION_TYPE":"U","GP_ID":"209262282","EPOCH":"2022-07-31T11:26:08.556288","ECCENTRICITY":"0.00013410","SEMIMAJOR_AXIS":"6925.353","TLE_LINE2":"2 45414  53.0560 289.8158 0001341  67.9235 292.1897 15.06398446131314","OBJECT_TYPE":"PAYLOAD","DECAY_DATE":null,"CENTER_NAME":"EARTH","INCLINATION":"53.0560","REF_FRAME":"TEME","MEAN_ELEMENT_THEORY":"SGP4","ARG_OF_PERICENTER":"67.9235"},{"REV_AT_EPOCH":"13138","TIME_SYSTEM":"UTC","PERIOD":"95.592","APOAPSIS":"548.107","SITE":"AFETR","NORAD_CAT_ID":"45415","ELEMENT_SET_NO":"999","PERIAPSIS":"546.336","FILE":"3526413","COUNTRY_CODE":"US","RCS_SIZE":"LARGE","TLE_LINE1":"1 45415U 20019BH  22212.70133498  .00000287  00000-0  38162-4 0  9996","MEAN_MOTION_DOT":"0.00000287","BSTAR":"0.00003816200000","LAUNCH_DATE":"2020-03-18","OBJECT_NAME":"STARLINK-1316","MEAN_ANOMALY":"265.8671","EPHEMERIS_TYPE":"0","RA_OF_ASC_NODE":"288.8158","MEAN_MOTION_DDOT":"0.0000000000000","MEAN_MOTION":"15.06397421","OBJECT_TYPE":"PAYLOAD","MEAN_ELEMENT_THEORY":"SGP4","REF_FRAME":"TEME","ARG_OF_PERICENTER":"94.2464","DECAY_DATE":null,"INCLINATION":"53.0560","CENTER_NAME":"EARTH","EPOCH":"2022-07-31T16:49:55.342272","GP_ID":"209292596","CLASSIFICATION_TYPE":"U","OBJECT_ID":"2020-019BH","ECCENTRICITY":"0.00012790","TLE_LINE2":"2 45415  53.0560 288.8158 0001279  94.2464 265.8671 15.06397421131387","SEMIMAJOR_AXIS":"6925.356"},{"ECCENTRICITY":"0.00012450","SEMIMAJOR_AXIS":"6925.377","TLE_LINE2":"2 45416  53.0539 288.6655 0001245  80.7748 279.3381 15.06390558131373","OBJECT_ID":"2020-019BJ","EPOCH":"2022-07-31T17:37:41.533536","GP_ID":"209292846","CLASSIFICATION_TYPE":"U","DECAY_DATE":null,"INCLINATION":"53.0539","CENTER_NAME":"EARTH","MEAN_ELEMENT_THEORY":"SGP4","REF_FRAME":"TEME","ARG_OF_PERICENTER":"80.7748","OBJECT_TYPE":"PAYLOAD","MEAN_MOTION_DDOT":"0.0000000000000","MEAN_MOTION":"15.06390558","BSTAR":"0.00001231900000","LAUNCH_DATE":"2020-03-18","OBJECT_NAME":"STARLINK-1318","MEAN_ANOMALY":"279.3381","RA_OF_ASC_NODE":"288.6655","EPHEMERIS_TYPE":"0","MEAN_MOTION_DOT":"-0.00000098","FILE":"3526413","COUNTRY_CODE":"US","RCS_SIZE":"LARGE","TLE_LINE1":"1 45416U 20019BJ  22212.73450849 -.00000098  00000-0  12319-4 0  9999","ELEMENT_SET_NO":"999","PERIAPSIS":"546.380","TIME_SYSTEM":"UTC","PERIOD":"95.593","APOAPSIS":"548.105","SITE":"AFETR","NORAD_CAT_ID":"45416","REV_AT_EPOCH":"13137"},{"COUNTRY_CODE":"US","RCS_SIZE":"LARGE","FILE":"3526413","TLE_LINE1":"1 45417U 20019BK  22212.47373607  .00003137  00000-0  22946-3 0  9999","ELEMENT_SET_NO":"999","PERIAPSIS":"546.343","PERIOD":"95.593","TIME_SYSTEM":"UTC","NORAD_CAT_ID":"45417","APOAPSIS":"548.129","SITE":"AFETR","REV_AT_EPOCH":"13118","MEAN_MOTION_DDOT":"0.0000000000000","MEAN_MOTION":"15.06392731","MEAN_ANOMALY":"268.3237","OBJECT_NAME":"STARLINK-1286","BSTAR":"0.00022946000000","LAUNCH_DATE":"2020-03-18","RA_OF_ASC_NODE":"319.8196","EPHEMERIS_TYPE":"0","MEAN_MOTION_DOT":"0.00003137","DECAY_DATE":null,"CENTER_NAME":"EARTH","INCLINATION":"53.0537","REF_FRAME":"TEME","MEAN_ELEMENT_THEORY":"SGP4","ARG_OF_PERICENTER":"91.7900","OBJECT_TYPE":"PAYLOAD","ECCENTRICITY":"0.00012890","TLE_LINE2":"2 45417  53.0537 319.8196 0001289  91.7900 268.3237 15.06392731131181","SEMIMAJOR_AXIS":"6925.371","OBJECT_ID":"2020-019BK","EPOCH":"2022-07-31T11:22:10.796448","GP_ID":"209294096","CLASSIFICATION_TYPE":"U"},{"NORAD_CAT_ID":"45418","APOAPSIS":"546.188","SITE":"AFETR","PERIOD":"95.549","TIME_SYSTEM":"UTC","REV_AT_EPOCH":"13062","TLE_LINE1":"1 45418U 20019BL  22212.74961785  .00006158  00000-0  42422-3 0  9997","COUNTRY_CODE":"US","RCS_SIZE":"LARGE","FILE":"3526413","PERIAPSIS":"544.087","ELEMENT_SET_NO":"999","EPHEMERIS_TYPE":"0","RA_OF_ASC_NODE":"339.8616","OBJECT_NAME":"STARLINK-1299","MEAN_ANOMALY":"248.3459","LAUNCH_DATE":"2020-03-18","BSTAR":"0.00042422000000","MEAN_MOTION_DOT":"0.00006158","MEAN_MOTION":"15.07077585","MEAN_MOTION_DDOT":"0.0000000000000","OBJECT_TYPE":"PAYLOAD","CENTER_NAME":"EARTH","INCLINATION":"53.0000","DECAY_DATE":null,"ARG_OF_PERICENTER":"111.7691","REF_FRAME":"TEME","MEAN_ELEMENT_THEORY":"SGP4","OBJECT_ID":"2020-019BL","GP_ID":"209293843","CLASSIFICATION_TYPE":"U","EPOCH":"2022-07-31T17:59:26.982240","SEMIMAJOR_AXIS":"6923.273","TLE_LINE2":"2 45418  53.0000 339.8616 0001517 111.7691 248.3459 15.07077585130620","ECCENTRICITY":"0.00015170"},{"TLE_LINE2":"2 45419  53.0560 318.6664 0001196  95.4472 264.6653 15.06399556130977","SEMIMAJOR_AXIS":"6925.350","ECCENTRICITY":"0.00011960","OBJECT_ID":"2020-019BM","CLASSIFICATION_TYPE":"U","GP_ID":"209293096","EPOCH":"2022-07-31T17:39:00.899712","INCLINATION":"53.0560","CENTER_NAME":"EARTH","DECAY_DATE":null,"ARG_OF_PERICENTER":"95.4472","MEAN_ELEMENT_THEORY":"SGP4","REF_FRAME":"TEME","OBJECT_TYPE":"PAYLOAD","MEAN_MOTION":"15.06399556","MEAN_MOTION_DDOT":"0.0000000000000","RA_OF_ASC_NODE":"318.6664","EPHEMERIS_TYPE":"0","LAUNCH_DATE":"2020-03-18","BSTAR":"0.00005643200000","MEAN_ANOMALY":"264.6653","OBJECT_NAME":"STARLINK-1308","MEAN_MOTION_DOT":"0.00000559","TLE_LINE1":"1 45419U 20019BM  22212.73542708  .00000559  00000-0  56432-4 0  9993","FILE":"3526413","COUNTRY_CODE":"US","RCS_SIZE":"LARGE","PERIAPSIS":"546.387","ELEMENT_SET_NO":"999","SITE":"AFETR","APOAPSIS":"548.043","NORAD_CAT_ID":"45419","TIME_SYSTEM":"UTC","PERIOD":"95.592","REV_AT_EPOCH":"13097"},{"ECCENTRICITY":"0.00012890","TLE_LINE2":"2 45531  53.0543 258.2077 0001289  76.8651 283.2482 15.06387345126611","SEMIMAJOR_AXIS":"6925.387","CLASSIFICATION_TYPE":"U","GP_ID":"209294353","EPOCH":"2022-07-31T20:04:59.770560","OBJECT_ID":"2020-025A","REF_FRAME":"TEME","MEAN_ELEMENT_THEORY":"SGP4","ARG_OF_PERICENTER":"76.8651","DECAY_DATE":null,"CENTER_NAME":"EARTH","INCLINATION":"53.0543","OBJECT_TYPE":"PAYLOAD","MEAN_MOTION_DDOT":"0.0000000000000","MEAN_MOTION":"15.06387345","MEAN_MOTION_DOT":"-0.00000631","OBJECT_NAME":"STARLINK-1329","MEAN_ANOMALY":"283.2482","BSTAR":"-0.00002347900000","LAUNCH_DATE":"2020-04-22","EPHEMERIS_TYPE":"0","RA_OF_ASC_NODE":"258.2077","ELEMENT_SET_NO":"999","PERIAPSIS":"546.360","COUNTRY_CODE":"US","RCS_SIZE":"LARGE","FILE":"3526413","TLE_LINE1":"1 45531U 20025A   22212.83680290 -.00000631  00000-0 -23479-4 0  9993","REV_AT_EPOCH":"12661","PERIOD":"95.593","TIME_SYSTEM":"UTC","NORAD_CAT_ID":"45531","SITE":"AFETR","APOAPSIS":"548.145"},{"NORAD_CAT_ID":"45532","SITE":"AFETR","APOAPSIS":"548.191","PERIOD":"95.593","TIME_SYSTEM":"UTC","REV_AT_EPOCH":"12661","TLE_LINE1":"1 45532U 20025B   22212.84785266 -.00000498  00000-0 -14548-4 0  9992","RCS_SIZE":"LARGE","COUNTRY_CODE":"US","FILE":"3526413","PERIAPSIS":"546.289","ELEMENT_SET_NO":"999","RA_OF_ASC_NODE":"258.1585","EPHEMERIS_TYPE":"0","MEAN_ANOMALY":"285.1104","OBJECT_NAME":"STARLINK-1338","LAUNCH_DATE":"2020-04-22","BSTAR":"-0.00001454800000","MEAN_MOTION_DOT":"-0.00000498","MEAN_MOTION":"15.06391461","MEAN_MOTION_DDOT":"0.0000000000000","OBJECT_TYPE":"PAYLOAD","CENTER_NAME":"EARTH","INCLINATION":"53.0543","DECAY_DATE":null,"ARG_OF_PERICENTER":"75.0036","REF_FRAME":"TEME","MEAN_ELEMENT_THEORY":"SGP4","OBJECT_ID":"2020-025B","EPOCH":"2022-07-31T20:20:54.469824","GP_ID":"209292608","CLASSIFICATION_TYPE":"U","SEMIMAJOR_AXIS":"6925.375","TLE_LINE2":"2 45532  53.0543 258.1585 0001373  75.0036 285.1104 15.06391461126613","ECCENTRICITY":"0.00013730"},{"ELEMENT_SET_NO":"999","PERIAPSIS":"374.793","FILE":"3526413","RCS_SIZE":"LARGE","COUNTRY_CODE":"US","TLE_LINE1":"1 45533U 20025C   22212.68424662  .00127511  00000-0  13060-2 0  9995","REV_AT_EPOCH":"12749","TIME_SYSTEM":"UTC","PERIOD":"92.066","APOAPSIS":"376.886","SITE":"AFETR","NORAD_CAT_ID":"45533","MEAN_MOTION_DDOT":"0.0000000000000","MEAN_MOTION":"15.64096862","MEAN_MOTION_DOT":"0.00127511","LAUNCH_DATE":"2020-04-22","BSTAR":"0.00130600000000","MEAN_ANOMALY":"108.2545","OBJECT_NAME":"STARLINK-1339","EPHEMERIS_TYPE":"0","RA_OF_ASC_NODE":"194.6202","MEAN_ELEMENT_THEORY":"SGP4","REF_FRAME":"TEME","ARG_OF_PERICENTER":"251.8300","DECAY_DATE":null,"INCLINATION":"53.0380","CENTER_NAME":"EARTH","OBJECT_TYPE":"PAYLOAD","ECCENTRICITY":"0.00015500","TLE_LINE2":"2 45533  53.0380 194.6202 0001550 251.8300 108.2545 15.64096862127490","SEMIMAJOR_AXIS":"6753.974","GP_ID":"209292858","CLASSIFICATION_TYPE":"U","EPOCH":"2022-07-31T16:25:18.907968","OBJECT_ID":"2020-025C"},{"MEAN_MOTION_DDOT":"0.0000000000000","MEAN_MOTION":"15.06402064","MEAN_MOTION_DOT":"0.00001395","LAUNCH_DATE":"2020-04-22","BSTAR":"0.00011255000000","MEAN_ANOMALY":"308.3378","OBJECT_NAME":"STARLINK-1341","RA_OF_ASC_NODE":"258.0980","EPHEMERIS_TYPE":"0","ELEMENT_SET_NO":"999","PERIAPSIS":"546.174","FILE":"3526413","COUNTRY_CODE":"US","RCS_SIZE":"LARGE","TLE_LINE1":"1 45534U 20025D   22212.85890593  .00001395  00000-0  11255-3 0  9991","REV_AT_EPOCH":"12661","TIME_SYSTEM":"UTC","PERIOD":"95.592","APOAPSIS":"548.240","SITE":"AFETR","NORAD_CAT_ID":"45534","ECCENTRICITY":"0.00014920","TLE_LINE2":"2 45534  53.0539 258.0980 0001492  51.7746 308.3378 15.06402064126612","SEMIMAJOR_AXIS":"6925.342","GP_ID":"209294108","CLASSIFICATION_TYPE":"U","EPOCH":"2022-07-31T20:36:49.472352","OBJECT_ID":"2020-025D","MEAN_ELEMENT_THEORY":"SGP4","REF_FRAME":"TEME","ARG_OF_PERICENTER":"51.7746","DECAY_DATE":null,"INCLINATION":"53.0539","CENTER_NAME":"EARTH","OBJECT_TYPE":"PAYLOAD"}];
